{"type": "FeatureCollection", "features": [ {"type": "Feature", "properties": {"norad_id": 42987, "name": "SKYSAT-C11", "group": "resource", "lat": -53.569110384695776, "lon": 140.6167133935164, "alt_km": 431.22266215765376, "timestamp": "2025-12-18T19:29:52.200621+00:00", "meta": {"OBJECT_NAME": "SKYSAT-C11", "OBJECT_ID": "2017-068A", "EPOCH": "2025-12-18T04:12:52.695360", "MEAN_MOTION": 15.47673714, "ECCENTRICITY": 0.00011655, "INCLINATION": 97.4139, "RA_OF_ASC_NODE": 129.8026, "ARG_OF_PERICENTER": 100.9043, "MEAN_ANOMALY": 259.2338, "EPHEMERIS_TYPE": 0, "CLASSIFICATION_TYPE": "U", "NORAD_CAT_ID": 42987, "ELEMENT_SET_NO": 999, "REV_AT_EPOCH": 45515, "BSTAR": 0.00038996641, "MEAN_MOTION_DOT": 0.00020081, "MEAN_MOTION_DDOT": 0}, "tle": {"line1": "1 42987U 17068A   25352.17560990  .00020081  00000+0  38997-3 0  9995", "line2": "2 42987  97.4139 129.8026 0001165 100.9043 259.2338 15.47673714455150"}}, "geometry": {"type": "Point", "coordinates": [140.6167133935164, -53.569110384695776]}}, {"type": "Feature", "properties": {"norad_id": 42988, "name": "SKYSAT-C10", "group": "resource", "lat": 48.47177508563532, "lon": 115.21114301338955, "alt_km": 462.0193835283708, "timestamp": "2025-12-18T19:29:52.200631+00:00", "meta": {"OBJECT_NAME": "SKYSAT-C10", "OBJECT_ID": "2017-068B", "EPOCH": "2025-12-18T05:10:41.111040", "MEAN_MOTION": 15.32178093, "ECCENTRICITY": 0.00054304, "INCLINATION": 97.4258, "RA_OF_ASC_NODE": 123.0819, "ARG_OF_PERICENTER": 88.316, "MEAN_ANOMALY": 271.8704, "EPHEMERIS_TYPE": 0, "CLASSIFICATION_TYPE": "U", "NORAD_CAT_ID": 42988, "ELEMENT_SET_NO": 999, "REV_AT_EPOCH": 45463, "BSTAR": 0.00031254327, "MEAN_MOTION_DOT": 9.638e-05, "MEAN_MOTION_DDOT": 0}, "tle": {"line1": "1 42988U 17068B   25352.21575360  .00009638  00000+0  31254-3 0  9992", "line2": "2 42988  97.4258 123.0819 0005430  88.3160 271.8704 15.32178093454630"}}, "geometry": {"type": "Point", "coordinates": [115.21114301338955, 48.47177508563532]}}, {"type": "Feature", "properties": {"norad_id": 42989, "name": "SKYSAT-C9", "group": "resource", "lat": -16.097206499914094, "lon": 125.26924355394047, "alt_km": 461.5548182687935, "timestamp": "2025-12-18T19:29:52.200641+00:00", "meta": {"OBJECT_NAME": "SKYSAT-C9", "OBJECT_ID": "2017-068C", "EPOCH": "2025-12-18T07:03:42.551136", "MEAN_MOTION": 15.36190512, "ECCENTRICITY": 0.00105702, "INCLINATION": 97.419, "RA_OF_ASC_NODE": 122.5919, "ARG_OF_PERICENTER": 69.9784, "MEAN_ANOMALY": 290.2597, "EPHEMERIS_TYPE": 0, "CLASSIFICATION_TYPE": "U", "NORAD_CAT_ID": 42989, "ELEMENT_SET_NO": 999, "REV_AT_EPOCH": 45493, "BSTAR": 0.00034468923, "MEAN_MOTION_DOT": 0.00012101, "MEAN_MOTION_DDOT": 0}, "tle": {"line1": "1 42989U 17068C   25352.29424249  .00012101  00000+0  34469-3 0  9990", "line2": "2 42989  97.4190 122.5919 0010570  69.9784 290.2597 15.36190512454931"}}, "geometry": {"type": "Point", "coordinates": [125.26924355394047, -16.097206499914094]}}, {"type": "Feature", "properties": {"norad_id": 42990, "name": "SKYSAT-C8", "group": "resource", "lat": -65.24812639448048, "lon": -73.59896649752852, "alt_km": 473.71368041132973, "timestamp": "2025-12-18T19:29:52.200651+00:00", "meta": {"OBJECT_NAME": "SKYSAT-C8", "OBJECT_ID": "2017-068D", "EPOCH": "2025-12-18T04:19:40.626912", "MEAN_MOTION": 15.33039437, "ECCENTRICITY": 0.00011978, "INCLINATION": 97.428, "RA_OF_ASC_NODE": 122.2043, "ARG_OF_PERICENTER": 320.7312, "MEAN_ANOMALY": 39.3843, "EPHEMERIS_TYPE": 0, "CLASSIFICATION_TYPE": "U", "NORAD_CAT_ID": 42990, "ELEMENT_SET_NO": 999, "REV_AT_EPOCH": 45454, "BSTAR": 0.00033004437, "MEAN_MOTION_DOT": 0.00010458, "MEAN_MOTION_DDOT": 0}, "tle": {"line1": "1 42990U 17068D   25352.18033133  .00010458  00000+0  33004-3 0  9995", "line2": "2 42990  97.4280 122.2043 0001197 320.7312  39.3843 15.33039437454546"}}, "geometry": {"type": "Point", "coordinates": [-73.59896649752852, -65.24812639448048]}}, {"type": "Feature", "properties": {"norad_id": 42991, "name": "SKYSAT-C7", "group": "resource", "lat": 82.45953923849449, "lon": 43.56994530142968, "alt_km": 457.86768547064, "timestamp": "2025-12-18T19:29:52.200661+00:00", "meta": {"OBJECT_NAME": "SKYSAT-C7", "OBJECT_ID": "2017-068E", "EPOCH": "2025-12-17T21:10:21.597024", "MEAN_MOTION": 15.32433807, "ECCENTRICITY": 0.00073248, "INCLINATION": 97.4288, "RA_OF_ASC_NODE": 122.9414, "ARG_OF_PERICENTER": 41.2137, "MEAN_ANOMALY": 318.9657, "EPHEMERIS_TYPE": 0, "CLASSIFICATION_TYPE": "U", "NORAD_CAT_ID": 42991, "ELEMENT_SET_NO": 999, "REV_AT_EPOCH": 45456, "BSTAR": 0.00028855662, "MEAN_MOTION_DOT": 8.966e-05, "MEAN_MOTION_DDOT": 0}, "tle": {"line1": "1 42991U 17068E   25351.88219441  .00008966  00000+0  28856-3 0  9990", "line2": "2 42991  97.4288 122.9414 0007324  41.2137 318.9657 15.32433807454561"}}, "geometry": {"type": "Point", "coordinates": [43.56994530142968, 82.45953923849449]}}, {"type": "Feature", "properties": {"norad_id": 42992, "name": "SKYSAT-C6", "group": "resource", "lat": -7.392394263530877, "lon": -56.66161616811565, "alt_km": 476.84325187300874, "timestamp": "2025-12-18T19:29:52.200671+00:00", "meta": {"OBJECT_NAME": "SKYSAT-C6", "OBJECT_ID": "2017-068F", "EPOCH": "2025-12-18T04:34:15.430368", "MEAN_MOTION": 15.31600046, "ECCENTRICITY": 0.00050692, "INCLINATION": 97.4321, "RA_OF_ASC_NODE": 123.6852, "ARG_OF_PERICENTER": 67.7962, "MEAN_ANOMALY": 292.3817, "EPHEMERIS_TYPE": 0, "CLASSIFICATION_TYPE": "U", "NORAD_CAT_ID": 42992, "ELEMENT_SET_NO": 999, "REV_AT_EPOCH": 45459, "BSTAR": 0.00032153489, "MEAN_MOTION_DOT": 9.739e-05, "MEAN_MOTION_DDOT": 0}, "tle": {"line1": "1 42992U 17068F   25352.19045637  .00009739  00000+0  32153-3 0  9994", "line2": "2 42992  97.4321 123.6852 0005069  67.7962 292.3817 15.31600046454593"}}, "geometry": {"type": "Point", "coordinates": [-56.66161616811565, -7.392394263530877]}}, {"type": "Feature", "properties": {"norad_id": 43111, "name": "CARTOSAT-2F", "group": "resource", "lat": 25.817891391300435, "lon": 46.73189484935061, "alt_km": 507.46244392441804, "timestamp": "2025-12-18T19:29:52.200681+00:00", "meta": {"OBJECT_NAME": "CARTOSAT-2F", "OBJECT_ID": "2018-004A", "EPOCH": "2025-12-18T14:38:27.890592", "MEAN_MOTION": 15.19179725, "ECCENTRICITY": 0.0001286, "INCLINATION": 97.4312, "RA_OF_ASC_NODE": 50.1533, "ARG_OF_PERICENTER": 111.9235, "MEAN_ANOMALY": 248.2137, "EPHEMERIS_TYPE": 0, "CLASSIFICATION_TYPE": "U", "NORAD_CAT_ID": 43111, "ELEMENT_SET_NO": 999, "REV_AT_EPOCH": 43991, "BSTAR": 0.00017648, "MEAN_MOTION_DOT": 3.644e-05, "MEAN_MOTION_DDOT": 0}, "tle": {"line1": "1 43111U 18004A   25352.61004503  .00003644  00000+0  17648-3 0  9994", "line2": "2 43111  97.4312  50.1533 0001286 111.9235 248.2137 15.19179725439914"}}, "geometry": {"type": "Point", "coordinates": [46.73189484935061, 25.817891391300435]}}, {"type": "Feature", "properties": {"norad_id": 43259, "name": "GAOFEN-1 02", "group": "resource", "lat": -61.98126136178389, "lon": 66.08922974528022, "alt_km": 648.1210713215869, "timestamp": "2025-12-18T19:29:52.200690+00:00", "meta": {"OBJECT_NAME": "GAOFEN-1 02", "OBJECT_ID": "2018-031A", "EPOCH": "2025-12-18T06:46:15.550752", "MEAN_MOTION": 14.76428112, "ECCENTRICITY": 0.0002103, "INCLINATION": 98.0806, "RA_OF_ASC_NODE": 50.0738, "ARG_OF_PERICENTER": 195.9186, "MEAN_ANOMALY": 164.1957, "EPHEMERIS_TYPE": 0, "CLASSIFICATION_TYPE": "U", "NORAD_CAT_ID": 43259, "ELEMENT_SET_NO": 999, "REV_AT_EPOCH": 41600, "BSTAR": 0.00015505706, "MEAN_MOTION_DOT": 1.026e-05, "MEAN_MOTION_DDOT": 0}, "tle": {"line1": "1 43259U 18031A   25352.28212443  .00001026  00000+0  15506-3 0  9997", "line2": "2 43259  98.0806  50.0738 0002103 195.9186 164.1957 14.76428112416004"}}, "geometry": {"type": "Point", "coordinates": [66.08922974528022, -61.98126136178389]}}, {"type": "Feature", "properties": {"norad_id": 43260, "name": "GAOFEN-1 03", "group": "resource", "lat": 51.808185783382484, "lon": 40.07760173653217, "alt_km": 636.3778026672326, "timestamp": "2025-12-18T19:29:52.200700+00:00", "meta": {"OBJECT_NAME": "GAOFEN-1 03", "OBJECT_ID": "2018-031B", "EPOCH": "2025-12-18T07:52:30.481248", "MEAN_MOTION": 14.76448348, "ECCENTRICITY": 0.00017527, "INCLINATION": 98.0792, "RA_OF_ASC_NODE": 49.9957, "ARG_OF_PERICENTER": 293.5505, "MEAN_ANOMALY": 66.552, "EPHEMERIS_TYPE": 0, "CLASSIFICATION_TYPE": "U", "NORAD_CAT_ID": 43260, "ELEMENT_SET_NO": 999, "REV_AT_EPOCH": 41600, "BSTAR": 0.00011597342, "MEAN_MOTION_DOT": 7.55e-06, "MEAN_MOTION_DDOT": 0}, "tle": {"line1": "1 43260U 18031B   25352.32813057  .00000755  00000+0  11597-3 0  9996", "line2": "2 43260  98.0792  49.9957 0001752 293.5505  66.5520 14.76448348416003"}}, "geometry": {"type": "Point", "coordinates": [40.07760173653217, 51.808185783382484]}}, {"type": "Feature", "properties": {"norad_id": 43262, "name": "GAOFEN-1 04", "group": "resource", "lat": -2.3657080426600943, "lon": -129.68563052723522, "alt_km": 644.1600701654097, "timestamp": "2025-12-18T19:29:52.200710+00:00", "meta": {"OBJECT_NAME": "GAOFEN-1 04", "OBJECT_ID": "2018-031D", "EPOCH": "2025-12-18T07:17:22.286688", "MEAN_MOTION": 14.76460753, "ECCENTRICITY": 8.51e-05, "INCLINATION": 98.0807, "RA_OF_ASC_NODE": 50.1418, "ARG_OF_PERICENTER": 60.4729, "MEAN_ANOMALY": 299.6565, "EPHEMERIS_TYPE": 0, "CLASSIFICATION_TYPE": "U", "NORAD_CAT_ID": 43262, "ELEMENT_SET_NO": 999, "REV_AT_EPOCH": 41599, "BSTAR": 8.125764e-05, "MEAN_MOTION_DOT": 5.14e-06, "MEAN_MOTION_DDOT": 0}, "tle": {"line1": "1 43262U 18031D   25352.30373017  .00000514  00000+0  81258-4 0  9998", "line2": "2 43262  98.0807  50.1418 0000851  60.4729 299.6565 14.76460753415995"}}, "geometry": {"type": "Point", "coordinates": [-129.68563052723522, -2.3657080426600943]}}]}